start=new Date('2023-04-11T00:00:00.000Z').valueOf();
sats=[{"EPHEMERIS_TYPE":"0","RA_OF_ASC_NODE":"113.6593","LAUNCH_DATE":"2023-03-17","SEMIMAJOR_AXIS":"6737.234","RCS_SIZE":"LARGE","SITE":"AFWTR","OBJECT_TYPE":"PAYLOAD","GP_ID":"229883376","REF_FRAME":"TEME","NORAD_CAT_ID":"55930","FILE":"3885363","ECCENTRICITY":"0.00034930","TLE_LINE1":"1 55930U 23037S   23100.74472547  .00004434  00000-0  38615-4 0  9995","ARG_OF_PERICENTER":"261.4325","COUNTRY_CODE":"US","PERIOD":"91.724","INCLINATION":"70.0006","DECAY_DATE":null,"OBJECT_ID":"2023-037S","OBJECT_NAME":"STARLINK-5896","REV_AT_EPOCH":"395","MEAN_MOTION_DOT":"0.00004434","CLASSIFICATION_TYPE":"U","EPOCH":"2023-04-10T17:52:24.280608","MEAN_MOTION":"15.69930157","ELEMENT_SET_NO":"999","MEAN_ELEMENT_THEORY":"SGP4","APOAPSIS":"361.452","BSTAR":"0.00003861500000","MEAN_ANOMALY":"98.6475","PERIAPSIS":"356.746","TLE_LINE2":"2 55930  70.0006 113.6593 0003493 261.4325  98.6475 15.69930157  3959","MEAN_MOTION_DDOT":"0.0000000000000","TIME_SYSTEM":"UTC","CENTER_NAME":"EARTH"},{"NORAD_CAT_ID":"55931","REF_FRAME":"TEME","OBJECT_TYPE":"PAYLOAD","SITE":"AFWTR","SEMIMAJOR_AXIS":"6737.228","RCS_SIZE":"LARGE","GP_ID":"229882251","LAUNCH_DATE":"2023-03-17","EPHEMERIS_TYPE":"0","RA_OF_ASC_NODE":"113.6633","PERIOD":"91.724","INCLINATION":"69.9990","ARG_OF_PERICENTER":"267.4463","TLE_LINE1":"1 55931U 23037T   23100.74535572  .00002043  00000-0  18754-4 0  9990","ECCENTRICITY":"0.00034530","COUNTRY_CODE":"US","FILE":"3885363","ELEMENT_SET_NO":"999","MEAN_MOTION":"15.69932115","EPOCH":"2023-04-10T17:53:18.734208","CLASSIFICATION_TYPE":"U","MEAN_MOTION_DOT":"0.00002043","OBJECT_ID":"2023-037T","DECAY_DATE":null,"REV_AT_EPOCH":"395","OBJECT_NAME":"STARLINK-5897","TIME_SYSTEM":"UTC","MEAN_MOTION_DDOT":"0.0000000000000","CENTER_NAME":"EARTH","TLE_LINE2":"2 55931  69.9990 113.6633 0003453 267.4463  92.6337 15.69932115  3956","BSTAR":"0.00001875400000","APOAPSIS":"361.420","MEAN_ANOMALY":"92.6337","PERIAPSIS":"356.767","MEAN_ELEMENT_THEORY":"SGP4"},{"GP_ID":"229883287","SEMIMAJOR_AXIS":"6737.237","RCS_SIZE":"LARGE","SITE":"AFWTR","OBJECT_TYPE":"PAYLOAD","REF_FRAME":"TEME","NORAD_CAT_ID":"55932","EPHEMERIS_TYPE":"0","RA_OF_ASC_NODE":"113.6457","LAUNCH_DATE":"2023-03-17","COUNTRY_CODE":"US","TLE_LINE1":"1 55932U 23037U   23100.74135194  .00001609  00000-0  15143-4 0  9993","ECCENTRICITY":"0.00034800","ARG_OF_PERICENTER":"266.8680","INCLINATION":"69.9993","PERIOD":"91.724","FILE":"3885363","CLASSIFICATION_TYPE":"U","EPOCH":"2023-04-10T17:47:32.807616","MEAN_MOTION":"15.69929037","ELEMENT_SET_NO":"999","OBJECT_NAME":"STARLINK-5848","REV_AT_EPOCH":"395","DECAY_DATE":null,"OBJECT_ID":"2023-037U","MEAN_MOTION_DOT":"0.00001609","TLE_LINE2":"2 55932  69.9993 113.6457 0003480 266.8680  93.2117 15.69929037  3950","MEAN_MOTION_DDOT":"0.0000000000000","TIME_SYSTEM":"UTC","CENTER_NAME":"EARTH","MEAN_ELEMENT_THEORY":"SGP4","MEAN_ANOMALY":"93.2117","PERIAPSIS":"356.757","APOAPSIS":"361.447","BSTAR":"0.00001514300000"},{"PERIAPSIS":"356.784","MEAN_ANOMALY":"98.1416","APOAPSIS":"361.405","BSTAR":"0.00004519400000","MEAN_ELEMENT_THEORY":"SGP4","MEAN_MOTION_DDOT":"0.0000000000000","TIME_SYSTEM":"UTC","CENTER_NAME":"EARTH","TLE_LINE2":"2 55933  70.0005 113.6611 0003429 261.9391  98.1416 15.69931661  3950","MEAN_MOTION_DOT":"0.00005227","OBJECT_NAME":"STARLINK-5852","REV_AT_EPOCH":"395","OBJECT_ID":"2023-037V","DECAY_DATE":null,"MEAN_MOTION":"15.69931661","ELEMENT_SET_NO":"999","CLASSIFICATION_TYPE":"U","EPOCH":"2023-04-10T17:53:00.731040","FILE":"3885363","INCLINATION":"70.0005","PERIOD":"91.724","COUNTRY_CODE":"US","TLE_LINE1":"1 55933U 23037V   23100.74514735  .00005227  00000-0  45194-4 0  9995","ECCENTRICITY":"0.00034290","ARG_OF_PERICENTER":"261.9391","LAUNCH_DATE":"2023-03-17","EPHEMERIS_TYPE":"0","RA_OF_ASC_NODE":"113.6611","NORAD_CAT_ID":"55933","REF_FRAME":"TEME","GP_ID":"229883365","SEMIMAJOR_AXIS":"6737.230","RCS_SIZE":"LARGE","OBJECT_TYPE":"PAYLOAD","SITE":"AFWTR"},{"MEAN_ELEMENT_THEORY":"SGP4","APOAPSIS":"361.605","BSTAR":"0.00011343000000","MEAN_ANOMALY":"100.2737","PERIAPSIS":"356.460","TLE_LINE2":"2 55934  70.0000 113.6574 0003818 259.8028 100.2737 15.69953337  3954","MEAN_MOTION_DDOT":"0.0000000000000","TIME_SYSTEM":"UTC","CENTER_NAME":"EARTH","DECAY_DATE":null,"OBJECT_ID":"2023-037W","OBJECT_NAME":"STARLINK-5927","REV_AT_EPOCH":"395","MEAN_MOTION_DOT":"0.00013466","EPOCH":"2023-04-10T17:51:28.987200","CLASSIFICATION_TYPE":"U","MEAN_MOTION":"15.69953337","ELEMENT_SET_NO":"999","FILE":"3885363","ECCENTRICITY":"0.00038180","TLE_LINE1":"1 55934U 23037W   23100.74408550  .00013466  00000-0  11343-3 0  9995","ARG_OF_PERICENTER":"259.8028","COUNTRY_CODE":"US","PERIOD":"91.722","INCLINATION":"70.0000","RA_OF_ASC_NODE":"113.6574","EPHEMERIS_TYPE":"0","LAUNCH_DATE":"2023-03-17","SEMIMAJOR_AXIS":"6737.168","RCS_SIZE":"LARGE","OBJECT_TYPE":"PAYLOAD","SITE":"AFWTR","GP_ID":"229883257","NORAD_CAT_ID":"55934","REF_FRAME":"TEME"},{"APOAPSIS":"361.304","BSTAR":"0.00003384000000","PERIAPSIS":"356.886","MEAN_ANOMALY":"96.2096","MEAN_ELEMENT_THEORY":"SGP4","MEAN_MOTION_DDOT":"0.0000000000000","CENTER_NAME":"EARTH","TIME_SYSTEM":"UTC","TLE_LINE2":"2 55935  70.0004 113.6592 0003279 263.8726  96.2096 15.69931387  3953","MEAN_MOTION_DOT":"0.00003859","DECAY_DATE":null,"OBJECT_ID":"2023-037X","OBJECT_NAME":"STARLINK-5920","REV_AT_EPOCH":"395","MEAN_MOTION":"15.69931387","ELEMENT_SET_NO":"999","CLASSIFICATION_TYPE":"U","EPOCH":"2023-04-10T17:52:15.208608","FILE":"3885363","PERIOD":"91.724","INCLINATION":"70.0004","ECCENTRICITY":"0.00032790","TLE_LINE1":"1 55935U 23037X   23100.74462047  .00003859  00000-0  33840-4 0  9999","ARG_OF_PERICENTER":"263.8726","COUNTRY_CODE":"US","LAUNCH_DATE":"2023-03-17","RA_OF_ASC_NODE":"113.6592","EPHEMERIS_TYPE":"0","REF_FRAME":"TEME","NORAD_CAT_ID":"55935","RCS_SIZE":"LARGE","SEMIMAJOR_AXIS":"6737.230","OBJECT_TYPE":"PAYLOAD","SITE":"AFWTR","GP_ID":"229882751"},{"DECAY_DATE":null,"OBJECT_ID":"2023-037Y","OBJECT_NAME":"STARLINK-5882","REV_AT_EPOCH":"395","MEAN_MOTION_DOT":"0.00001264","CLASSIFICATION_TYPE":"U","EPOCH":"2023-04-10T17:47:42.005760","MEAN_MOTION":"15.69927479","ELEMENT_SET_NO":"999","MEAN_ELEMENT_THEORY":"SGP4","APOAPSIS":"361.448","BSTAR":"0.00001228100000","MEAN_ANOMALY":"92.0131","PERIAPSIS":"356.765","TLE_LINE2":"2 55936  70.0001 113.6450 0003476 268.0667  92.0131 15.69927479  3955","CENTER_NAME":"EARTH","MEAN_MOTION_DDOT":"0.0000000000000","TIME_SYSTEM":"UTC","RA_OF_ASC_NODE":"113.6450","EPHEMERIS_TYPE":"0","LAUNCH_DATE":"2023-03-17","RCS_SIZE":"LARGE","SEMIMAJOR_AXIS":"6737.241","SITE":"AFWTR","OBJECT_TYPE":"PAYLOAD","GP_ID":"229883406","REF_FRAME":"TEME","NORAD_CAT_ID":"55936","FILE":"3885363","TLE_LINE1":"1 55936U 23037Y   23100.74145840  .00001264  00000-0  12281-4 0  9993","ECCENTRICITY":"0.00034760","ARG_OF_PERICENTER":"268.0667","COUNTRY_CODE":"US","PERIOD":"91.724","INCLINATION":"70.0001"},{"FILE":"3885363","COUNTRY_CODE":"US","ARG_OF_PERICENTER":"272.3597","TLE_LINE1":"1 55937U 23037Z   23100.74451314  .00004086  00000-0  35722-4 0  9990","ECCENTRICITY":"0.00034920","INCLINATION":"70.0003","PERIOD":"91.724","RA_OF_ASC_NODE":"113.6585","EPHEMERIS_TYPE":"0","LAUNCH_DATE":"2023-03-17","GP_ID":"229883246","OBJECT_TYPE":"PAYLOAD","SITE":"AFWTR","SEMIMAJOR_AXIS":"6737.225","RCS_SIZE":"LARGE","NORAD_CAT_ID":"55937","REF_FRAME":"TEME","MEAN_ELEMENT_THEORY":"SGP4","MEAN_ANOMALY":"87.7198","PERIAPSIS":"356.737","BSTAR":"0.00003572200000","APOAPSIS":"361.442","TLE_LINE2":"2 55937  70.0003 113.6585 0003492 272.3597  87.7198 15.69933383  3950","TIME_SYSTEM":"UTC","MEAN_MOTION_DDOT":"0.0000000000000","CENTER_NAME":"EARTH","REV_AT_EPOCH":"395","OBJECT_NAME":"STARLINK-5913","DECAY_DATE":null,"OBJECT_ID":"2023-037Z","MEAN_MOTION_DOT":"0.00004086","EPOCH":"2023-04-10T17:52:05.935296","CLASSIFICATION_TYPE":"U","ELEMENT_SET_NO":"999","MEAN_MOTION":"15.69933383"},{"REV_AT_EPOCH":"395","OBJECT_NAME":"STARLINK-5909","DECAY_DATE":null,"OBJECT_ID":"2023-037AA","MEAN_MOTION_DOT":"0.00000294","CLASSIFICATION_TYPE":"U","EPOCH":"2023-04-10T17:51:57.082752","ELEMENT_SET_NO":"999","MEAN_MOTION":"15.69924679","MEAN_ELEMENT_THEORY":"SGP4","MEAN_ANOMALY":"86.8652","PERIAPSIS":"357.027","BSTAR":"0.00000421280000","APOAPSIS":"361.202","TLE_LINE2":"2 55938  69.9993 113.6579 0003098 273.2190  86.8652 15.69924679  3953","TIME_SYSTEM":"UTC","MEAN_MOTION_DDOT":"0.0000000000000","CENTER_NAME":"EARTH","RA_OF_ASC_NODE":"113.6579","EPHEMERIS_TYPE":"0","LAUNCH_DATE":"2023-03-17","GP_ID":"229883377","OBJECT_TYPE":"PAYLOAD","SITE":"AFWTR","SEMIMAJOR_AXIS":"6737.249","RCS_SIZE":"LARGE","REF_FRAME":"TEME","NORAD_CAT_ID":"55938","FILE":"3885363","COUNTRY_CODE":"US","ARG_OF_PERICENTER":"273.2190","ECCENTRICITY":"0.00030980","TLE_LINE1":"1 55938U 23037AA  23100.74441068  .00000294  00000-0  42128-5 0  9992","INCLINATION":"69.9993","PERIOD":"91.724"},{"MEAN_MOTION_DDOT":"0.0000000000000","CENTER_NAME":"EARTH","TIME_SYSTEM":"UTC","TLE_LINE2":"2 55939  69.9999 113.6570 0003814 264.7702  95.3058 15.69932879  3957","PERIAPSIS":"356.521","MEAN_ANOMALY":"95.3058","APOAPSIS":"361.661","BSTAR":"0.00004700000000","MEAN_ELEMENT_THEORY":"SGP4","MEAN_MOTION":"15.69932879","ELEMENT_SET_NO":"999","CLASSIFICATION_TYPE":"U","EPOCH":"2023-04-10T17:51:38.575008","MEAN_MOTION_DOT":"0.00005445","OBJECT_NAME":"STARLINK-5918","REV_AT_EPOCH":"395","OBJECT_ID":"2023-037AB","DECAY_DATE":null,"INCLINATION":"69.9999","PERIOD":"91.724","COUNTRY_CODE":"US","TLE_LINE1":"1 55939U 23037AB  23100.74419647  .00005445  00000-0  47000-4 0  9997","ECCENTRICITY":"0.00038140","ARG_OF_PERICENTER":"264.7702","FILE":"3885363","NORAD_CAT_ID":"55939","REF_FRAME":"TEME","GP_ID":"229882252","SEMIMAJOR_AXIS":"6737.226","RCS_SIZE":"LARGE","SITE":"AFWTR","OBJECT_TYPE":"PAYLOAD","LAUNCH_DATE":"2023-03-17","EPHEMERIS_TYPE":"0","RA_OF_ASC_NODE":"113.6570"}];
